ISS (ZARYA)             
1 25544U 98067A   26024.81951359  .00017054  00000+0  32584-3 0  9996
2 25544  51.6323 289.2130 0011027  26.4083 333.7465 15.48158028549530
CSS (TIANHE)            
1 48274U 21035A   26025.11748419  .00029997  00000+0  34841-3 0  9994
2 48274  41.4666 113.0026 0009952 356.5980   3.4790 15.61038306270801
ISS (NAUKA)             
1 49044U 21066A   26024.81951360  .00017054  00000+0  32584-3 0  9994
2 49044  51.6323 289.2130 0011027  26.4083 333.7465 15.48158028230448
FREGAT DEB              
1 49271U 11037PF  26024.29767533  .00054911  00000+0  10104+0 0  9995
2 49271  51.6468  73.3951 0908473 317.9862  35.4639 12.36691983207197
CSS (WENTIAN)           
1 53239U 22085A   26024.86157726  .00026833  00000+0  31240-3 0  9999
2 53239  41.4667 114.5606 0010029 354.6584   5.4146 15.61020753173845
CSS (MENGTIAN)          
1 54216U 22143A   26024.86157726  .00026833  00000+0  31240-3 0  9990
2 54216  41.4667 114.5606 0010029 354.6584   5.4146 15.61020753158642
PROGRESS-MS 31          
1 64751U 25146A   26024.81951360  .00017054  00000+0  32584-3 0  9999
2 64751  51.6323 289.2130 0011027  26.4083 333.7465 15.48158028  6755
TIANZHOU-9              
1 64786U 25149A   26024.86157726  .00026833  00000+0  31240-3 0  9992
2 64786  41.4667 114.5606 0010029 354.6584   5.4146 15.61020753255306
DRAGON CRS-33           
1 65304U 25186A   26024.81951360  .00017054  00000+0  32584-3 0  9998
2 65304  51.6323 289.2130 0011027  26.4083 333.7465 15.48158028   114
PROGRESS-MS 32          
1 65586U 25204A   26024.81951360  .00017054  00000+0  32584-3 0  9991
2 65586  51.6323 289.2130 0011027  26.4083 333.7465 15.48158028   273
CYGNUS NG-23            
1 65616U 25208A   26024.81951360  .00017054  00000+0  32584-3 0  9999
2 65616  51.6323 289.2130 0011027  26.4083 333.7465 15.48158028   222
DRAGONFLY               
1 65729U 98067XH  26024.67152693  .01051106  58343-3  17108-2 0  9991
2 65729  51.6140 272.3368 0007424 189.5009 170.5862 16.02765508 19962
