CCSDS_OMM_VERS = 2.0
CREATION_DATE  = 
ORIGINATOR     = 

OBJECT_NAME    = ISS (ZARYA)
OBJECT_ID      = 1998-067A
CENTER_NAME    = EARTH
REF_FRAME      = TEME
TIME_SYSTEM    = UTC
MEAN_ELEMENT_THEORY = SGP/SGP4

EPOCH          = 2026-01-24T19:40:05.974176
MEAN_MOTION    = 15.48158028
ECCENTRICITY   = .0011027
INCLINATION    = 51.6323
RA_OF_ASC_NODE = 289.2130
ARG_OF_PERICENTER = 26.4083
MEAN_ANOMALY   = 333.7465

EPHEMERIS_TYPE = 0
CLASSIFICATION_TYPE = U
NORAD_CAT_ID   = 25544
ELEMENT_SET_NO = 999
REV_AT_EPOCH   = 54953
BSTAR          = .32584E-3
MEAN_MOTION_DOT = .17054E-3
MEAN_MOTION_DDOT = 0

CCSDS_OMM_VERS = 2.0
CREATION_DATE  = 
ORIGINATOR     = 

OBJECT_NAME    = CSS (TIANHE)
OBJECT_ID      = 2021-035A
CENTER_NAME    = EARTH
REF_FRAME      = TEME
TIME_SYSTEM    = UTC
MEAN_ELEMENT_THEORY = SGP/SGP4

EPOCH          = 2026-01-25T02:49:10.634016
MEAN_MOTION    = 15.61038306
ECCENTRICITY   = .0009952
INCLINATION    = 41.4666
RA_OF_ASC_NODE = 113.0026
ARG_OF_PERICENTER = 356.5980
MEAN_ANOMALY   = 3.4790

EPHEMERIS_TYPE = 0
CLASSIFICATION_TYPE = U
NORAD_CAT_ID   = 48274
ELEMENT_SET_NO = 999
REV_AT_EPOCH   = 27080
BSTAR          = .34841E-3
MEAN_MOTION_DOT = .29997E-3
MEAN_MOTION_DDOT = 0

CCSDS_OMM_VERS = 2.0
CREATION_DATE  = 
ORIGINATOR     = 

OBJECT_NAME    = ISS (NAUKA)
OBJECT_ID      = 2021-066A
CENTER_NAME    = EARTH
REF_FRAME      = TEME
TIME_SYSTEM    = UTC
MEAN_ELEMENT_THEORY = SGP/SGP4

EPOCH          = 2026-01-24T19:40:05.975040
MEAN_MOTION    = 15.48158028
ECCENTRICITY   = .00110271
INCLINATION    = 51.6323
RA_OF_ASC_NODE = 289.2130
ARG_OF_PERICENTER = 26.4083
MEAN_ANOMALY   = 333.7465

EPHEMERIS_TYPE = 0
CLASSIFICATION_TYPE = U
NORAD_CAT_ID   = 49044
ELEMENT_SET_NO = 999
REV_AT_EPOCH   = 23044
BSTAR          = .32584332E-3
MEAN_MOTION_DOT = .17054E-3
MEAN_MOTION_DDOT = 0

CCSDS_OMM_VERS = 2.0
CREATION_DATE  = 
ORIGINATOR     = 

OBJECT_NAME    = FREGAT DEB
OBJECT_ID      = 2011-037PF
CENTER_NAME    = EARTH
REF_FRAME      = TEME
TIME_SYSTEM    = UTC
MEAN_ELEMENT_THEORY = SGP/SGP4

EPOCH          = 2026-01-24T07:08:39.148512
MEAN_MOTION    = 12.36691983
ECCENTRICITY   = .09084735
INCLINATION    = 51.6468
RA_OF_ASC_NODE = 73.3951
ARG_OF_PERICENTER = 317.9862
MEAN_ANOMALY   = 35.4639

EPHEMERIS_TYPE = 0
CLASSIFICATION_TYPE = U
NORAD_CAT_ID   = 49271
ELEMENT_SET_NO = 999
REV_AT_EPOCH   = 20719
BSTAR          = .10104148E+0
MEAN_MOTION_DOT = .54911E-3
MEAN_MOTION_DDOT = 0

CCSDS_OMM_VERS = 2.0
CREATION_DATE  = 
ORIGINATOR     = 

OBJECT_NAME    = CSS (WENTIAN)
OBJECT_ID      = 2022-085A
CENTER_NAME    = EARTH
REF_FRAME      = TEME
TIME_SYSTEM    = UTC
MEAN_ELEMENT_THEORY = SGP/SGP4

EPOCH          = 2026-01-24T20:40:40.275264
MEAN_MOTION    = 15.61020753
ECCENTRICITY   = .0010029
INCLINATION    = 41.4667
RA_OF_ASC_NODE = 114.5606
ARG_OF_PERICENTER = 354.6584
MEAN_ANOMALY   = 5.4146

EPHEMERIS_TYPE = 0
CLASSIFICATION_TYPE = U
NORAD_CAT_ID   = 53239
ELEMENT_SET_NO = 999
REV_AT_EPOCH   = 17384
BSTAR          = .31240168E-3
MEAN_MOTION_DOT = .26833E-3
MEAN_MOTION_DDOT = 0

CCSDS_OMM_VERS = 2.0
CREATION_DATE  = 
ORIGINATOR     = 

OBJECT_NAME    = CSS (MENGTIAN)
OBJECT_ID      = 2022-143A
CENTER_NAME    = EARTH
REF_FRAME      = TEME
TIME_SYSTEM    = UTC
MEAN_ELEMENT_THEORY = SGP/SGP4

EPOCH          = 2026-01-24T20:40:40.275264
MEAN_MOTION    = 15.61020753
ECCENTRICITY   = .0010029
INCLINATION    = 41.4667
RA_OF_ASC_NODE = 114.5606
ARG_OF_PERICENTER = 354.6584
MEAN_ANOMALY   = 5.4146

EPHEMERIS_TYPE = 0
CLASSIFICATION_TYPE = U
NORAD_CAT_ID   = 54216
ELEMENT_SET_NO = 999
REV_AT_EPOCH   = 15864
BSTAR          = .31240168E-3
MEAN_MOTION_DOT = .26833E-3
MEAN_MOTION_DDOT = 0

CCSDS_OMM_VERS = 2.0
CREATION_DATE  = 
ORIGINATOR     = 

OBJECT_NAME    = PROGRESS-MS 31
OBJECT_ID      = 2025-146A
CENTER_NAME    = EARTH
REF_FRAME      = TEME
TIME_SYSTEM    = UTC
MEAN_ELEMENT_THEORY = SGP/SGP4

EPOCH          = 2026-01-24T19:40:05.975040
MEAN_MOTION    = 15.48158028
ECCENTRICITY   = .00110271
INCLINATION    = 51.6323
RA_OF_ASC_NODE = 289.2130
ARG_OF_PERICENTER = 26.4083
MEAN_ANOMALY   = 333.7465

EPHEMERIS_TYPE = 0
CLASSIFICATION_TYPE = U
NORAD_CAT_ID   = 64751
ELEMENT_SET_NO = 999
REV_AT_EPOCH   = 675
BSTAR          = .32584332E-3
MEAN_MOTION_DOT = .17054E-3
MEAN_MOTION_DDOT = 0

CCSDS_OMM_VERS = 2.0
CREATION_DATE  = 
ORIGINATOR     = 

OBJECT_NAME    = TIANZHOU-9
OBJECT_ID      = 2025-149A
CENTER_NAME    = EARTH
REF_FRAME      = TEME
TIME_SYSTEM    = UTC
MEAN_ELEMENT_THEORY = SGP/SGP4

EPOCH          = 2026-01-24T20:40:40.275264
MEAN_MOTION    = 15.61020753
ECCENTRICITY   = .0010029
INCLINATION    = 41.4667
RA_OF_ASC_NODE = 114.5606
ARG_OF_PERICENTER = 354.6584
MEAN_ANOMALY   = 5.4146

EPHEMERIS_TYPE = 0
CLASSIFICATION_TYPE = U
NORAD_CAT_ID   = 64786
ELEMENT_SET_NO = 999
REV_AT_EPOCH   = 25530
BSTAR          = .31240168E-3
MEAN_MOTION_DOT = .26833E-3
MEAN_MOTION_DDOT = 0

CCSDS_OMM_VERS = 2.0
CREATION_DATE  = 
ORIGINATOR     = 

OBJECT_NAME    = DRAGON CRS-33
OBJECT_ID      = 2025-186A
CENTER_NAME    = EARTH
REF_FRAME      = TEME
TIME_SYSTEM    = UTC
MEAN_ELEMENT_THEORY = SGP/SGP4

EPOCH          = 2026-01-24T19:40:05.975040
MEAN_MOTION    = 15.48158028
ECCENTRICITY   = .00110271
INCLINATION    = 51.6323
RA_OF_ASC_NODE = 289.2130
ARG_OF_PERICENTER = 26.4083
MEAN_ANOMALY   = 333.7465

EPHEMERIS_TYPE = 0
CLASSIFICATION_TYPE = U
NORAD_CAT_ID   = 65304
ELEMENT_SET_NO = 999
REV_AT_EPOCH   = 11
BSTAR          = .32584332E-3
MEAN_MOTION_DOT = .17054E-3
MEAN_MOTION_DDOT = 0

CCSDS_OMM_VERS = 2.0
CREATION_DATE  = 
ORIGINATOR     = 

OBJECT_NAME    = PROGRESS-MS 32
OBJECT_ID      = 2025-204A
CENTER_NAME    = EARTH
REF_FRAME      = TEME
TIME_SYSTEM    = UTC
MEAN_ELEMENT_THEORY = SGP/SGP4

EPOCH          = 2026-01-24T19:40:05.975040
MEAN_MOTION    = 15.48158028
ECCENTRICITY   = .00110271
INCLINATION    = 51.6323
RA_OF_ASC_NODE = 289.2130
ARG_OF_PERICENTER = 26.4083
MEAN_ANOMALY   = 333.7465

EPHEMERIS_TYPE = 0
CLASSIFICATION_TYPE = U
NORAD_CAT_ID   = 65586
ELEMENT_SET_NO = 999
REV_AT_EPOCH   = 27
BSTAR          = .32584332E-3
MEAN_MOTION_DOT = .17054E-3
MEAN_MOTION_DDOT = 0

CCSDS_OMM_VERS = 2.0
CREATION_DATE  = 
ORIGINATOR     = 

OBJECT_NAME    = CYGNUS NG-23
OBJECT_ID      = 2025-208A
CENTER_NAME    = EARTH
REF_FRAME      = TEME
TIME_SYSTEM    = UTC
MEAN_ELEMENT_THEORY = SGP/SGP4

EPOCH          = 2026-01-24T19:40:05.975040
MEAN_MOTION    = 15.48158028
ECCENTRICITY   = .00110271
INCLINATION    = 51.6323
RA_OF_ASC_NODE = 289.2130
ARG_OF_PERICENTER = 26.4083
MEAN_ANOMALY   = 333.7465

EPHEMERIS_TYPE = 0
CLASSIFICATION_TYPE = U
NORAD_CAT_ID   = 65616
ELEMENT_SET_NO = 999
REV_AT_EPOCH   = 22
BSTAR          = .32584332E-3
MEAN_MOTION_DOT = .17054E-3
MEAN_MOTION_DDOT = 0

CCSDS_OMM_VERS = 2.0
CREATION_DATE  = 
ORIGINATOR     = 

OBJECT_NAME    = DRAGONFLY
OBJECT_ID      = 1998-067XH
CENTER_NAME    = EARTH
REF_FRAME      = TEME
TIME_SYSTEM    = UTC
MEAN_ELEMENT_THEORY = SGP/SGP4

EPOCH          = 2026-01-24T16:06:59.926752
MEAN_MOTION    = 16.02765508
ECCENTRICITY   = .00074248
INCLINATION    = 51.6140
RA_OF_ASC_NODE = 272.3368
ARG_OF_PERICENTER = 189.5009
MEAN_ANOMALY   = 170.5862

EPHEMERIS_TYPE = 0
CLASSIFICATION_TYPE = U
NORAD_CAT_ID   = 65729
ELEMENT_SET_NO = 999
REV_AT_EPOCH   = 1996
BSTAR          = .17108133E-2
MEAN_MOTION_DOT = .1051106E-1
MEAN_MOTION_DDOT = .58343248E-3

